KINEIS-2A               
1 62932U 25028E   26054.14162024  .00001287  00000+0  21266-3 0  9993
2 62932  98.0631 109.7535 0003728 237.8799 122.2047 14.72057196 55826
KINEIS-2B               
1 62934U 25028G   26054.10428243  .00001303  00000+0  21018-3 0  9993
2 62934  97.9825 108.9825 0004458 143.7229 216.4282 14.73066783 55862
STARLINK-32728          
1 62948U 25029A   26054.14390899  .00028143  00000+0  95730-3 0  9991
2 62948  53.1594 297.6685 0001393 102.3112 257.8044 15.30248051 59167
STARLINK-32857          
1 62949U 25029B   26054.06276808  .00016005  00000+0  55120-3 0  9999
2 62949  53.1610 297.8853 0001302  87.2508 272.8642 15.30208443 59157
STARLINK-32850          
1 62950U 25029C   26054.10022951  .00035489  00000+0  12045-2 0  9999
2 62950  53.1570 300.2423 0001156  89.7758 270.3375 15.30202682 59095
STARLINK-32875          
1 62951U 25029D   26054.08914681  .00033272  00000+0  11301-2 0  9999
2 62951  53.1576 298.0464 0001045  81.7640 278.3480 15.30210598 59124
STARLINK-32865          
1 62952U 25029E   26053.96326950  .00022924  00000+0  78383-3 0  9998
2 62952  53.1584 300.8082 0001454  97.2544 262.8622 15.30195575 59078
STARLINK-32884          
1 62953U 25029F   26054.08598219  .00016625  00000+0  57217-3 0  9996
2 62953  53.1582 298.0243 0001288  85.9961 274.1187 15.30199962 59128
STARLINK-32874          
1 62954U 25029G   26053.94162618  .00036183  00000+0  12267-2 0  9997
2 62954  53.1595 298.5430 0001301  84.7913 275.3237 15.30229351 59109
STARLINK-32880          
1 62955U 25029H   26053.96221034  .00026019  00000+0  88721-3 0  9994
2 62955  53.1580 300.8008 0001373  80.6855 279.4301 15.30211361 59076
STARLINK-32815          
1 62956U 25029J   26054.08387137  .00041039  00000+0  13898-2 0  9997
2 62956  53.1585 298.0119 0001265  88.5428 271.5718 15.30206315 59120
STARLINK-32879          
1 62957U 25029K   26054.11711389  .00023264  00000+0  79471-3 0  9992
2 62957  53.1575 300.3504 0001319  78.9602 281.1547 15.30217091 59087
STARLINK-32885          
1 62958U 25029L   26054.08492568  .00043830  00000+0  14831-2 0  9993
2 62958  53.1583 298.0167 0001239  81.9961 278.1180 15.30203603 59115
STARLINK-32896          
1 62959U 25029M   26054.06446224  .00025274  00000+0  86221-3 0  9995
2 62959  53.1608 300.7254 0001048 110.1149 249.9965 15.30212449 59073
STARLINK-32877          
1 62960U 25029N   26054.05813720  .00025103  00000+0  85688-3 0  9992
2 62960  53.1597 300.6861 0001213  93.3635 266.7505 15.30197095 59055
STARLINK-32889          
1 62961U 25029P   26054.06130082  .00024975  00000+0  85190-3 0  9991
2 62961  53.1580 300.7108 0001169  94.4590 265.6544 15.30224100 59076
STARLINK-32858          
1 62962U 25029Q   26054.26346390  .00025610  00000+0  87379-3 0  9993
2 62962  53.1602 299.1272 0001515  63.0513 297.0643 15.30200955 59090
STARLINK-32882          
1 62963U 25029R   26054.08705525  .00020352  00000+0  69875-3 0  9992
2 62963  53.1577 298.0299 0000860  95.5353 264.5746 15.30136676 59117
STARLINK-32887          
1 62964U 25029S   26053.95113049  .00027785  00000+0  94649-3 0  9996
2 62964  53.1585 298.6042 0001321  86.8586 273.2566 15.30207531 59096
STARLINK-32836          
1 62965U 25029T   26053.94691924  .00028744  00000+0  97847-3 0  9998
2 62965  53.1589 298.5754 0001342  75.9588 284.1562 15.30212492 59093
STARLINK-32888          
1 62966U 25029U   26054.05496569  .00023926  00000+0  81725-3 0  9995
2 62966  53.1586 300.6802 0001192 111.8996 248.2132 15.30203723 59075
STARLINK-32897          
1 62967U 25029V   26053.95693737  .00028280  00000+0  96274-3 0  9993
2 62967  53.1593 300.7651 0001413  92.1893 267.9270 15.30219479 59065
STARLINK-32863          
1 62968U 25029W   26053.98015488  .00013307  00000+0  46058-3 0  9997
2 62968  53.1574 300.9143 0001367  76.7319 283.3834 15.30202315 58206
STARLINK-32894          
1 62969U 25029X   26053.95058982  .00053685  00000+0  18080-2 0  9997
2 62969  53.1580 300.7243 0001082 103.2204 256.8917 15.30265973 59067
STARLINK-32826          
1 62970U 25029Y   26053.94427919  .00032273  00000+0  10967-2 0  9994
2 62970  53.1600 300.6840 0001634  81.6576 278.4610 15.30210196 59065
HULIANWANG DIGUI-11     
1 62971U 25030A   26054.18817609 -.00000079  00000+0  97698-4 0  9991
2 62971  50.0004 284.7142 0000668 138.1651 221.9273 13.29336906 50697
HULIANWANG DIGUI-12     
1 62972U 25030B   26054.19643247 -.00000080  00000+0  95585-4 0  9993
2 62972  50.0020 284.8025 0000795 131.6653 228.4287 13.29339086 50697
HULIANWANG DIGUI-13     
1 62973U 25030C   26054.17979079 -.00000089  00000+0  75404-4 0  9994
2 62973  50.0023 284.7274 0000622 122.4222 237.6711 13.29337124 50690
HULIANWANG DIGUI-14     
1 62974U 25030D   26054.22996642 -.00000075  00000+0  10476-3 0  9998
2 62974  50.0028 284.3451 0000700 121.5753 238.5188 13.29336739 50706
HULIANWANG DIGUI-15     
1 62975U 25030E   26054.17147231 -.00000083  00000+0  87393-4 0  9997
2 62975  50.0024 284.6866 0000620 131.6871 228.4055 13.29336990 50698
HULIANWANG DIGUI-16     
1 62976U 25030F   26054.14638859 -.00000069  00000+0  11817-3 0  9997
2 62976  50.0046 284.6227 0000727 121.5249 238.5695 13.29337537 50699
HULIANWANG DIGUI-17     
1 62977U 25030G   26054.21324770 -.00000075  00000+0  10506-3 0  9991
2 62977  50.0059 284.3477 0000658 126.8684 233.2248 13.29337321 50701
HULIANWANG DIGUI-18     
1 62978U 25030H   26054.20487489 -.00000077  00000+0  10079-3 0  9995
2 62978  50.0063 284.3143 0000698 128.8283 231.2651 13.29337399 50709
HULIANWANG DIGUI-19     
1 62979U 25030J   26054.16293126 -.00000085  00000+0  84602-4 0  9997
2 62979  50.0048 284.7139 0000715 122.4712 237.6229 13.29340403 50698
STARLINK-11543 [DTC]    
1 62981U 25031A   26054.30336866  .00205977  00000+0  15728-2 0  9993
2 62981  43.0001  87.8332 0002050 266.0217  94.0416 15.70785608 60487
STARLINK-11458 [DTC]    
1 62982U 25031B   26053.81064344  .00242031  00000+0  18302-2 0  9991
2 62982  43.0004  91.0277 0000598  28.4339 331.6561 15.70905727 60405
STARLINK-11417 [DTC]    
1 62983U 25031C   26054.29287605 -.00011629  00000+0 -87218-4 0  9995
2 62983  42.9997  88.6440 0001943 303.5622  56.5060 15.70848748 60479
STARLINK-11544 [DTC]    
1 62984U 25031D   26054.12323204  .00203103  00000+0  15377-2 0  9997
2 62984  42.9967  89.0660 0001117 160.1241 199.9671 15.70997965 60424
STARLINK-11582 [DTC]    
1 62985U 25031E   26054.13915804  .00228102  00000+0  17253-2 0  9993
2 62985  43.0003  89.1960 0001804 249.1278 110.9397 15.70943950 60459
STARLINK-11571 [DTC]    
1 62986U 25031F   26054.10730274  .00249630  00000+0  18819-2 0  9995
2 62986  42.9999  88.9386 0001141 281.6563  78.4177 15.70955242 60454
STARLINK-11539 [DTC]    
1 62987U 25031G   26054.13384788  .00225188  00000+0  17028-2 0  9997
2 62987  42.9994  89.1513 0001086 261.8186  98.2559 15.70959078 60459
STARLINK-11542 [DTC]    
1 62988U 25031H   26053.16418336  .00166289  00000+0  12707-2 0  9992
2 62988  43.0000  94.7710 0002776 275.2123  84.8427 15.70892702 60273
STARLINK-11573 [DTC]    
1 62989U 25031J   26054.21335809  .00187016  00000+0  14293-2 0  9996
2 62989  42.9998  88.8962 0002149 262.8948  97.1675 15.70824690 60433
STARLINK-11572 [DTC]    
1 62990U 25031K   26054.12414371  .00348727  00000+0  25946-2 0  9995
2 62990  42.9996  89.0714 0001646 247.7526 112.3167 15.70970111 60454
STARLINK-11583 [DTC]    
1 62991U 25031L   26053.51926900  .00164757  00000+0  12607-2 0  9993
2 62991  42.9989  93.1554 0000878 284.6401  75.4369 15.70868416 60360
STARLINK-11570 [DTC]    
1 62992U 25031M   26053.52456115  .00196053  00000+0  14908-2 0  9991
2 62992  42.9990  93.1962 0001362 275.6790  84.3922 15.70916780 60346
STARLINK-11576 [DTC]    
1 62993U 25031N   26054.20805454  .00254264  00000+0  19296-2 0  9996
2 62993  42.9988  88.8505 0005338 296.4019  63.6300 15.70772810 60456
STARLINK-32899          
1 62994U 25031P   26054.19264450  .00036553  00000+0  13308-2 0  9997
2 62994  42.9954 225.5980 0000925  68.8914 291.2037 15.27590179 58876
STARLINK-32819          
1 62995U 25031Q   26054.15922069  .00014178  00000+0  52380-3 0  9994
2 62995  43.0011 225.3370 0001268 270.6491  89.4215 15.27576736 58876
STARLINK-32703          
1 62996U 25031R   26054.18750148  .00024379  00000+0  89218-3 0  9999
2 62996  42.9979 225.5556 0000831 274.4084  85.6672 15.27591680 58871
STARLINK-32881          
1 62997U 25031S   26053.75663075  .00029481  00000+0  10765-2 0  9993
2 62997  43.0002 227.4713 0002193 273.1543  86.9058 15.27582799 58813
STARLINK-32898          
1 62998U 25031T   26054.18106668  .00024594  00000+0  89962-3 0  9998
2 62998  43.0019 225.5085 0002627 271.1953  88.8598 15.27602234 58871
STARLINK-32658          
1 62999U 25031U   26053.82589374  .00020371  00000+0  74754-3 0  9990
2 62999  42.9985 227.1331 0001551 261.3793  98.6883 15.27588766 58826
STARLINK-32673          
1 63000U 25031V   26054.17079482  .00021650  00000+0  79391-3 0  9990
2 63000  43.0018 225.4217 0001369 282.3329  77.7370 15.27582319 58870
STARLINK-32437          
1 63001U 25031W   26053.86954289  .00032386  00000+0  11794-2 0  9993
2 63001  43.0047 227.4745 0002855 280.5101  79.5429 15.27628403 58825
2025-009DM              
1 63002U 25009DM  26053.69143968  .00168755  00000+0  21320-2 0  9990
2 63002  97.4102 142.9670 0003528 247.2256 112.8628 15.58970826119472
FOSSASAT-2E20 (TAT-O)   
1 63003U 25009DN  26054.15820531  .00019157  00000+0  73599-3 0  9998
2 63003  97.3261 132.0093 0003383  38.5758 321.5722 15.26473916119099
STARLINK-11448 [DTC]    
1 63005U 25032A   26053.02151708  .00293334  00000+0  22052-2 0  9992
2 63005  43.0009 289.4220 0003053 266.4413  93.6106 15.70888728 59762
STARLINK-11553 [DTC]    
1 63006U 25032B   26053.25002314 -.00016952  00000+0 -12880-3 0  9996
2 63006  43.0004 288.7944 0001612 275.5018 357.6727 15.70855406  5775
